<?xml version="1.0" encoding="UTF-8"?>
<ndm xmlns:xsi="http://www.w3.org/2001/XMLSchema-instance" xsi:noNamespaceSchemaLocation="https://sanaregistry.org/r/ndmxml_unqualified/ndmxml-2.0.0-master-2.0.xsd">
<omm id="CCSDS_OMM_VERS" version="2.0">
<header><CREATION_DATE/><ORIGINATOR/></header><body><segment><metadata><OBJECT_NAME>ORBCOMM FM24</OBJECT_NAME><OBJECT_ID>1998-053D</OBJECT_ID><CENTER_NAME>EARTH</CENTER_NAME><REF_FRAME>TEME</REF_FRAME><TIME_SYSTEM>UTC</TIME_SYSTEM><MEAN_ELEMENT_THEORY>SGP4</MEAN_ELEMENT_THEORY></metadata><data><meanElements><EPOCH>2025-03-26T01:49:38.285184</EPOCH><MEAN_MOTION>14.37798340</MEAN_MOTION><ECCENTRICITY>.0002007</ECCENTRICITY><INCLINATION>45.0078</INCLINATION><RA_OF_ASC_NODE>303.0895</RA_OF_ASC_NODE><ARG_OF_PERICENTER>153.5879</ARG_OF_PERICENTER><MEAN_ANOMALY>206.5072</MEAN_ANOMALY></meanElements><tleParameters><EPHEMERIS_TYPE>0</EPHEMERIS_TYPE><CLASSIFICATION_TYPE>U</CLASSIFICATION_TYPE><NORAD_CAT_ID>25478</NORAD_CAT_ID><ELEMENT_SET_NO>999</ELEMENT_SET_NO><REV_AT_EPOCH>38576</REV_AT_EPOCH><BSTAR>.11619E-2</BSTAR><MEAN_MOTION_DOT>.3392E-4</MEAN_MOTION_DOT><MEAN_MOTION_DDOT>0</MEAN_MOTION_DDOT></tleParameters></data></segment></body></omm>
<omm id="CCSDS_OMM_VERS" version="2.0">
<header><CREATION_DATE/><ORIGINATOR/></header><body><segment><metadata><OBJECT_NAME>ORBCOMM FM26</OBJECT_NAME><OBJECT_ID>1998-053F</OBJECT_ID><CENTER_NAME>EARTH</CENTER_NAME><REF_FRAME>TEME</REF_FRAME><TIME_SYSTEM>UTC</TIME_SYSTEM><MEAN_ELEMENT_THEORY>SGP4</MEAN_ELEMENT_THEORY></metadata><data><meanElements><EPOCH>2025-03-25T22:25:52.179744</EPOCH><MEAN_MOTION>14.36880613</MEAN_MOTION><ECCENTRICITY>.0005806</ECCENTRICITY><INCLINATION>45.0066</INCLINATION><RA_OF_ASC_NODE>297.8913</RA_OF_ASC_NODE><ARG_OF_PERICENTER>201.6289</ARG_OF_PERICENTER><MEAN_ANOMALY>158.4315</MEAN_ANOMALY></meanElements><tleParameters><EPHEMERIS_TYPE>0</EPHEMERIS_TYPE><CLASSIFICATION_TYPE>U</CLASSIFICATION_TYPE><NORAD_CAT_ID>25480</NORAD_CAT_ID><ELEMENT_SET_NO>999</ELEMENT_SET_NO><REV_AT_EPOCH>38577</REV_AT_EPOCH><BSTAR>.93212E-3</BSTAR><MEAN_MOTION_DOT>.2641E-4</MEAN_MOTION_DOT><MEAN_MOTION_DDOT>0</MEAN_MOTION_DDOT></tleParameters></data></segment></body></omm>
<omm id="CCSDS_OMM_VERS" version="2.0">
<header><CREATION_DATE/><ORIGINATOR/></header><body><segment><metadata><OBJECT_NAME>ORBCOMM FM27</OBJECT_NAME><OBJECT_ID>1998-053G</OBJECT_ID><CENTER_NAME>EARTH</CENTER_NAME><REF_FRAME>TEME</REF_FRAME><TIME_SYSTEM>UTC</TIME_SYSTEM><MEAN_ELEMENT_THEORY>SGP4</MEAN_ELEMENT_THEORY></metadata><data><meanElements><EPOCH>2025-03-26T02:30:41.646816</EPOCH><MEAN_MOTION>14.37790863</MEAN_MOTION><ECCENTRICITY>.0000663</ECCENTRICITY><INCLINATION>45.0050</INCLINATION><RA_OF_ASC_NODE>301.4456</RA_OF_ASC_NODE><ARG_OF_PERICENTER>120.4016</ARG_OF_PERICENTER><MEAN_ANOMALY>239.6897</MEAN_ANOMALY></meanElements><tleParameters><EPHEMERIS_TYPE>0</EPHEMERIS_TYPE><CLASSIFICATION_TYPE>U</CLASSIFICATION_TYPE><NORAD_CAT_ID>25481</NORAD_CAT_ID><ELEMENT_SET_NO>999</ELEMENT_SET_NO><REV_AT_EPOCH>38575</REV_AT_EPOCH><BSTAR>.12568E-2</BSTAR><MEAN_MOTION_DOT>.368E-4</MEAN_MOTION_DOT><MEAN_MOTION_DDOT>0</MEAN_MOTION_DDOT></tleParameters></data></segment></body></omm>
<omm id="CCSDS_OMM_VERS" version="2.0">
<header><CREATION_DATE/><ORIGINATOR/></header><body><segment><metadata><OBJECT_NAME>ORBCOMM FM28</OBJECT_NAME><OBJECT_ID>1998-053H</OBJECT_ID><CENTER_NAME>EARTH</CENTER_NAME><REF_FRAME>TEME</REF_FRAME><TIME_SYSTEM>UTC</TIME_SYSTEM><MEAN_ELEMENT_THEORY>SGP4</MEAN_ELEMENT_THEORY></metadata><data><meanElements><EPOCH>2025-03-25T21:01:48.815616</EPOCH><MEAN_MOTION>14.38019179</MEAN_MOTION><ECCENTRICITY>.0005136</ECCENTRICITY><INCLINATION>45.0040</INCLINATION><RA_OF_ASC_NODE>240.1570</RA_OF_ASC_NODE><ARG_OF_PERICENTER>227.7952</ARG_OF_PERICENTER><MEAN_ANOMALY>132.2461</MEAN_ANOMALY></meanElements><tleParameters><EPHEMERIS_TYPE>0</EPHEMERIS_TYPE><CLASSIFICATION_TYPE>U</CLASSIFICATION_TYPE><NORAD_CAT_ID>25482</NORAD_CAT_ID><ELEMENT_SET_NO>999</ELEMENT_SET_NO><REV_AT_EPOCH>38653</REV_AT_EPOCH><BSTAR>.11913E-2</BSTAR><MEAN_MOTION_DOT>.3498E-4</MEAN_MOTION_DOT><MEAN_MOTION_DDOT>0</MEAN_MOTION_DDOT></tleParameters></data></segment></body></omm>
<omm id="CCSDS_OMM_VERS" version="2.0">
<header><CREATION_DATE/><ORIGINATOR/></header><body><segment><metadata><OBJECT_NAME>ORBCOMM FM30</OBJECT_NAME><OBJECT_ID>1999-065A</OBJECT_ID><CENTER_NAME>EARTH</CENTER_NAME><REF_FRAME>TEME</REF_FRAME><TIME_SYSTEM>UTC</TIME_SYSTEM><MEAN_ELEMENT_THEORY>SGP4</MEAN_ELEMENT_THEORY></metadata><data><meanElements><EPOCH>2025-03-26T03:25:11.434944</EPOCH><MEAN_MOTION>14.37034734</MEAN_MOTION><ECCENTRICITY>.0008162</ECCENTRICITY><INCLINATION>45.0298</INCLINATION><RA_OF_ASC_NODE>122.7292</RA_OF_ASC_NODE><ARG_OF_PERICENTER>300.3616</ARG_OF_PERICENTER><MEAN_ANOMALY>59.6425</MEAN_ANOMALY></meanElements><tleParameters><EPHEMERIS_TYPE>0</EPHEMERIS_TYPE><CLASSIFICATION_TYPE>U</CLASSIFICATION_TYPE><NORAD_CAT_ID>25980</NORAD_CAT_ID><ELEMENT_SET_NO>999</ELEMENT_SET_NO><REV_AT_EPOCH>32303</REV_AT_EPOCH><BSTAR>.91576E-3</BSTAR><MEAN_MOTION_DOT>.2601E-4</MEAN_MOTION_DOT><MEAN_MOTION_DDOT>0</MEAN_MOTION_DDOT></tleParameters></data></segment></body></omm>
<omm id="CCSDS_OMM_VERS" version="2.0">
<header><CREATION_DATE/><ORIGINATOR/></header><body><segment><metadata><OBJECT_NAME>ORBCOMM FM31</OBJECT_NAME><OBJECT_ID>1999-065B</OBJECT_ID><CENTER_NAME>EARTH</CENTER_NAME><REF_FRAME>TEME</REF_FRAME><TIME_SYSTEM>UTC</TIME_SYSTEM><MEAN_ELEMENT_THEORY>SGP4</MEAN_ELEMENT_THEORY></metadata><data><meanElements><EPOCH>2025-03-25T18:21:41.219424</EPOCH><MEAN_MOTION>14.36991831</MEAN_MOTION><ECCENTRICITY>.0005143</ECCENTRICITY><INCLINATION>45.0211</INCLINATION><RA_OF_ASC_NODE>118.0295</RA_OF_ASC_NODE><ARG_OF_PERICENTER>311.3940</ARG_OF_PERICENTER><MEAN_ANOMALY>48.6465</MEAN_ANOMALY></meanElements><tleParameters><EPHEMERIS_TYPE>0</EPHEMERIS_TYPE><CLASSIFICATION_TYPE>U</CLASSIFICATION_TYPE><NORAD_CAT_ID>25981</NORAD_CAT_ID><ELEMENT_SET_NO>999</ELEMENT_SET_NO><REV_AT_EPOCH>32200</REV_AT_EPOCH><BSTAR>.90624E-3</BSTAR><MEAN_MOTION_DOT>.257E-4</MEAN_MOTION_DOT><MEAN_MOTION_DDOT>0</MEAN_MOTION_DDOT></tleParameters></data></segment></body></omm>
<omm id="CCSDS_OMM_VERS" version="2.0">
<header><CREATION_DATE/><ORIGINATOR/></header><body><segment><metadata><OBJECT_NAME>ORBCOMM FM32</OBJECT_NAME><OBJECT_ID>1999-065C</OBJECT_ID><CENTER_NAME>EARTH</CENTER_NAME><REF_FRAME>TEME</REF_FRAME><TIME_SYSTEM>UTC</TIME_SYSTEM><MEAN_ELEMENT_THEORY>SGP4</MEAN_ELEMENT_THEORY></metadata><data><meanElements><EPOCH>2025-03-26T04:09:21.588192</EPOCH><MEAN_MOTION>14.36045918</MEAN_MOTION><ECCENTRICITY>.0006904</ECCENTRICITY><INCLINATION>45.0138</INCLINATION><RA_OF_ASC_NODE>132.1148</RA_OF_ASC_NODE><ARG_OF_PERICENTER>315.8242</ARG_OF_PERICENTER><MEAN_ANOMALY>44.2054</MEAN_ANOMALY></meanElements><tleParameters><EPHEMERIS_TYPE>0</EPHEMERIS_TYPE><CLASSIFICATION_TYPE>U</CLASSIFICATION_TYPE><NORAD_CAT_ID>25982</NORAD_CAT_ID><ELEMENT_SET_NO>999</ELEMENT_SET_NO><REV_AT_EPOCH>32279</REV_AT_EPOCH><BSTAR>.10496E-2</BSTAR><MEAN_MOTION_DOT>.2941E-4</MEAN_MOTION_DOT><MEAN_MOTION_DDOT>0</MEAN_MOTION_DDOT></tleParameters></data></segment></body></omm>

</ndm>
