ORBCOMM FM24            
1 25478U 98053D   25085.07613756  .00003392  00000+0  11619-2 0  9992
2 25478  45.0078 303.0895 0002007 153.5879 206.5072 14.37798340385764
ORBCOMM FM26            
1 25480U 98053F   25084.93463171  .00002641  00000+0  93212-3 0  9999
2 25480  45.0066 297.8913 0005806 201.6289 158.4315 14.36880613385775
ORBCOMM FM27            
1 25481U 98053G   25085.10464869  .00003680  00000+0  12568-2 0  9993
2 25481  45.0050 301.4456 0000663 120.4016 239.6897 14.37790863385758
ORBCOMM FM28            
1 25482U 98053H   25084.87625944  .00003498  00000+0  11913-2 0  9990
2 25482  45.0040 240.1570 0005136 227.7952 132.2461 14.38019179386531
ORBCOMM FM30            
1 25980U 99065A   25085.14249346  .00002601  00000+0  91576-3 0  9995
2 25980  45.0298 122.7292 0008162 300.3616  59.6425 14.37034734323033
ORBCOMM FM31            
1 25981U 99065B   25084.76506041  .00002570  00000+0  90624-3 0  9999
2 25981  45.0211 118.0295 0005143 311.3940  48.6465 14.36991831322005
ORBCOMM FM32            
1 25982U 99065C   25085.17316653  .00002941  00000+0  10496-2 0  9994
2 25982  45.0138 132.1148 0006904 315.8242  44.2054 14.36045918322796
